SB KEPS @ AMSAT  $ORB09064.N
2Line Orbital Elements 09064.AMSAT

HR AMSAT ORBITAL ELEMENTS FOR AMATEUR SATELLITES IN NASA FORMAT
FROM WA5QGD FORT WORTH,TX March 5, 2009
Send Subscribe/unsubscribe to KEPS at 
http://www.amsat.org/mailman/listinfo/keps
BID: ORB09064.N

DECODE 2-LINE ELSETS WITH THE FOLLOWING KEY:
1 AAAAAU 00  0  0 BBBBB.BBBBBBBB  .CCCCCCCC  00000-0  00000-0 0  DDDZ
2 AAAAA EEE.EEEE FFF.FFFF GGGGGGG HHH.HHHH III.IIII JJ.JJJJJJJJKKKKKZ
KEY: A-CATALOGNUM B-EPOCHTIME C-DECAY D-ELSETNUM E-INCLINATION F-RAAN
G-ECCENTRICITY H-ARGPERIGEE I-MNANOM J-MNMOTION K-ORBITNUM Z-CHECKSUM

TO ALL RADIO AMATEURS BT

AO-07
1 07530U 74089B   09064.50008816 -.00000027  00000-0  10000-3 0  4180
2 07530 101.4386 092.9458 0012071 111.3895 248.8468 12.53575438569728
AO-10
1 14129U 83058B   09063.34409699 -.00000340  00000-0  10000-3 0  6295
2 14129 025.9805 168.5651 5977441 202.9830 112.1219 02.05871203193469
UO-11
1 14781U 84021B   09063.67106061 -.00000134  00000-0 -10545-4 0  9024
2 14781 098.1214 107.1210 0008371 319.7772 040.2832 14.79696307342375
RS-15
1 23439U 94085A   09063.94457153 -.00000039  00000-0  10000-3 0 02117
2 23439 064.8138 073.3859 0146088 071.8556 289.8214 11.27553205584368
FO-29
1 24278U 96046B   09063.72935825 -.00000049  00000-0 -10711-4 0 09985
2 24278 098.5654 311.7231 0349795 261.0130 095.1267 13.52942584619627
SO-33
1 25509U 98061B   09063.83991548  .00000145  00000-0  16451-4 0 04020
2 25509 031.4303 282.5327 0354335 146.2558 216.1166 14.28243419540909
AO-40
1 26609U 00072B   09064.39775925 -.00000200  00000-0  10000-3 0  1986
2 26609 008.8446 029.8585 7953643 181.6962 171.4779 01.25583845 38325
RS-22
1 27939U 03042A   09064.46741965  .00000064  00000-0  21312-4 0  7317
2 27939 097.9604 303.0219 0014647 098.9150 261.3682 14.63298458290402
VO-52
1 28650U 05017B   09064.24501409 -.00000268  00000-0 -27352-4 0  1700
2 28650 097.7536 129.2066 0027469 011.5126 348.6665 14.81557050207250
PO-63
1 29712U 07001D   09064.67889543  .00000440  00000-0  64236-4 0  2871
2 29712 097.8413 123.5087 0013065 250.8005 109.1783 14.80460098116159
AO-16
1 20439U 90005D   09063.66149009  .00000011  00000-0  19535-4 0  5484
2 20439 098.2671 036.8853 0011723 118.8667 241.3704 14.31817340998196
LO-19
1 20442U 90005G   09063.45614326 -.00000062  00000-0 -78318-5 0 04723
2 20442 098.2317 044.3503 0012788 117.1249 243.1228 14.32053599998328
AO-27
1 22825U 93061C   09064.46644063  .00000043  00000-0  33454-4 0  1914
2 22825 098.4234 021.2212 0007931 205.5585 154.5221 14.29260013805091
IO-26
1 22826U 93061D   09064.40487680 -.00000006  00000-0  14228-4 0  9117
2 22826 098.4173 021.9555 0008472 201.5738 158.5093 14.29510714805185
GO-32
1 25397U 98043D   09064.58152485 -.00000107  00000-0 -29171-4 0  8361
2 25397 098.3367 092.4260 0001369 154.5657 205.5595 14.23155244553396
NO-44
1 26931U 01043C   09064.31978477  .00000322  00000-0  15819-3 0  1136
2 26931 067.0543 331.9346 0005211 264.2429 095.8086 14.29550403387732
SO-50
1 27607U 02058C   09064.26989768 -.00000120  00000-0  37440-5 0  8290
2 27607 064.5603 340.7030 0077548 228.0419 131.4053 14.71417413333382
CO-55
1 27844U 03031E   09063.54327045  .00000019  00000-0  29122-4 0  5255
2 27844 098.7157 074.1766 0010719 085.0207 275.2198 14.20624869294400
CO-57
1 27848U 03031J   09063.92892688 -.00000004  00000-0  18426-4 0 04733
2 27848 098.7169 073.6205 0010598 087.0641 273.1752 14.20428687294423
AO-51
1 28375U 04025K   09063.57486983  .00000004  00000-0  13473-4 0 03321
2 28375 098.0564 079.2599 0084987 082.3484 278.7347 14.40634594245891
CO-56
1 28941U 06005C   09064.73302674  .00068254  39446-5  32876-3 0  8743
2 28941 098.1295 220.7430 0114847 160.7615 199.8104 15.73428317170921
CP3
1 31128U 07012M   09063.82195395 -.00000048  00000-0  00000 0 0  5713
2 31128 098.0033 121.7462 0101798 248.2559 110.7766 14.52022339 99753
CP4
1 31132U 07012Q   09064.38740496 -.00000018  00000-0  65411-5 0  5493
2 31132 098.0080 125.7641 0084595 236.2091 123.1028 14.55186471 99936
CO-65
1 32785U 08021C   09064.78649163 -.00000203  00000-0 -19088-4 0  3068
2 32785 097.9591 129.5533 0015318 011.9525 348.2048 14.81452786 46135
NOAA-10
1 16969U 86073A   09064.13177903 -.00000113  00000-0 -28153-4 0  5249
2 16969 098.7027 091.2969 0012791 137.6782 222.5384 14.27380637168660
NOAA-11
1 19531U 88089A   09064.32519148 -.00000194  00000-0 -77718-4 0  5361
2 19531 098.7831 155.8865 0012253 046.8436 313.3763 14.14888931 54832
NOAA-12
1 21263U 91032A   09064.65205737  .00000007  00000-0  21859-4 0   305
2 21263 098.7742 072.6585 0013373 085.7944 274.4762 14.25568606925641
MET-3/5
1 21655U 91056A   09063.91963401  .00000051  00000-0  10000-3 0 05683
2 21655 082.5525 280.1689 0014677 081.1068 279.1715 13.17018967843900
MET-2/21
1 22782U 93055A   09063.82991771 -.00000004  00000-0 -17109-4 0  3953
2 22782 082.5435 264.7928 0021062 280.7113 079.1671 13.83633552783177
OKEAN-4
1 23317U 94066A   09064.77768281  .00000000  00000-0 -29309-5 0  8455
2 23317 082.5355 070.9874 0022045 350.1454 009.9349 14.82677565777046
NOAA-14
1 23455U 94089A   09064.41793911  .00000046  00000-0  47884-4 0  5354
2 23455 098.9164 142.4356 0010277 123.3551 236.8650 14.13758297731266
NOAA-15
1 25338U 98030A   09064.53786095 -.00000098  00000-0 -23726-4 0  8399
2 25338 098.5798 056.0522 0010787 005.7401 354.3898 14.24747458562019
RESURS
1 25394U 98043A   09064.67322178 -.00000034  00000-0  29041-5 0  1577
2 25394 098.3532 102.2299 0001748 122.1441 237.9907 14.24180333553666
FENGYUN1
1 25730U 99025A   09063.95917841  .00000450  00000-0  28916-3 0 07046
2 25730 098.7480 037.2741 0022490 150.7294 209.5140 14.07935240505651
OKEAN-0
1 25860U 99039A   09063.53195899 -.00000003  00000-0  67292-5 0  6158
2 25860 097.7773 048.9259 0001484 105.4350 254.7018 14.73560623517732
NOAA-16
1 26536U 00055A   09064.51950407 -.00000200  00000-0 -82721-4 0  3152
2 26536 099.1775 065.6841 0010066 208.5889 151.4728 14.12511110435664
NOAA-17
1 27453U 02032A   09064.36435471  .00000057  00000-0  43241-4 0  3231
2 27453 098.4974 126.9542 0012604 069.6899 290.5663 14.24045233347972
NOAA-18
1 28654U 05018A   09064.39352229  .00000372  00000-0  23045-3 0  8104
2 28654 098.8989 008.4879 0013595 298.2675 061.7125 14.11239679195310
NOAA-19
1 33591U 09005A   09064.70584417  .00000088  00000-0  72722-4 0   261
2 33591 098.7362 013.2144 0014086 173.2782 186.8577 14.10938290  3846
HUBBLE
1 20580U 90037B   09064.42347310  .00000325  00000-0  12228-4 0  3406
2 20580 028.4696 059.2685 0003599 275.8625 084.1555 15.00460534834256
PO-34
1 25520U 98064B   09064.53035072  .00000360  00000-0  79014-5 0  1970
2 25520 028.4602 228.9742 0005450 248.7612 111.2397 15.17304345572894
ISS
1 25544U 98067A   09064.66571322  .00008711  00000-0  71718-4 0  3989
2 25544 051.6402 117.2204 0009690 090.7880 050.2403 15.71285410589665
CO-58
1 28895U 05043F   09063.73820533  .00000030  00000-0  15882-4 0 02492
2 28895 098.0704 317.2059 0017236 317.5148 042.4706 14.59746193178498
FALCON
1 30776U 07006E   09063.95566483  .00000327  00000-0  26759-4 0 05317
2 30776 035.4341 011.7705 0000675 058.2612 301.8198 15.03181151109408
MAST
1 31126U 07012K   09064.15382343 -.00000051  00000-0 -70266-6 0  5419
2 31126 098.0018 123.6602 0093659 242.5498 116.6152 14.53480332 99921
CAPE1
1 31130U 07012P   09064.84756658 -.00000057  00000-0 -20769-5 0  5434
2 31130 098.0058 122.7393 0101594 244.9188 114.1401 14.52036912 99691
COMPASS
1 32787U 08021E   09063.21781009  .00000378  00000-0  54833-4 0 02969
2 32787 097.9557 127.8767 0016498 017.1309 343.0446 14.81556697045902
AAUSAT2
1 32788U 08021F   09064.81507160  .00000197  00000-0  31832-4 0  2975
2 32788 097.9547 129.5032 0015505 014.6113 345.5552 14.81676232 46149
DO-64
1 32789U 08021G   09063.68648939  .00000561  00000-0  78087-4 0 03160
2 32789 097.9598 128.4863 0015936 015.7327 344.4368 14.81629095045971
CO-66
1 32791U 08021J   09063.18133682  .00000023  00000-0  97556-5 0 02921
2 32791 097.9580 127.8698 0016587 015.6348 344.5366 14.81394005045866
RS-30
1 32953U 08025A   09064.19711254  .00000010  00000-0  00000 0 0  2472
2 32953 082.5060 321.2898 0020172 046.3507 313.9241 12.42999804 35475
/EX
